{
  "type": "FeatureCollection",
  "features": [
    {
      "type": "Feature",
      "properties": {
        "norad_id": 31255,
        "name": "FENGYUN 1C DEB",
        "group": "fengyun-1c-debris",
        "lat": -3.749291652610781,
        "lon": 178.11430550876563,
        "alt_km": 733.8152934805839,
        "timestamp": "2025-12-25T22:42:17.292835+00:00",
        "meta_object_name": "FENGYUN 1C DEB",
        "meta_object_id": "1999-025BMM",
        "meta_epoch": "2025-12-23T11:06:19.382976",
        "meta_mean_motion": 14.09743921,
        "meta_eccentricity": 0.02703562,
        "meta_inclination": 99.3085,
        "meta_ra_of_asc_node": 174.9282,
        "meta_arg_of_pericenter": 313.5957,
        "meta_mean_anomaly": 44.3057,
        "meta_ephemeris_type": 0,
        "meta_classification_type": "U",
        "meta_norad_cat_id": 31255,
        "meta_element_set_no": 999,
        "meta_rev_at_epoch": 96952,
        "meta_bstar": 0.00028400087,
        "meta_mean_motion_dot": 6.46e-06,
        "meta_mean_motion_ddot": 0,
        "tle_line1": "1 31255U 99025BMM 25357.46272434  .00000646  00000+0  28400-3 0  9997",
        "tle_line2": "2 31255  99.3085 174.9282 0270356 313.5957  44.3057 14.09743921969525"
      },
      "geometry": {
        "type": "Point",
        "coordinates": [
          178.11430550876563,
          -3.749291652610781
        ]
      }
    },
    {
      "type": "Feature",
      "properties": {
        "norad_id": 31256,
        "name": "FENGYUN 1C DEB",
        "group": "fengyun-1c-debris",
        "lat": -78.37848812256607,
        "lon": -105.00844508124268,
        "alt_km": 1097.6270542700622,
        "timestamp": "2025-12-25T22:42:17.292845+00:00",
        "meta_object_name": "FENGYUN 1C DEB",
        "meta_object_id": "1999-025BMN",
        "meta_epoch": "2025-12-25T12:50:24.048384",
        "meta_mean_motion": 14.03412598,
        "meta_eccentricity": 0.0308502,
        "meta_inclination": 98.6797,
        "meta_ra_of_asc_node": 206.6326,
        "meta_arg_of_pericenter": 77.9872,
        "meta_mean_anomaly": 285.5692,
        "meta_ephemeris_type": 0,
        "meta_classification_type": "U",
        "meta_norad_cat_id": 31256,
        "meta_element_set_no": 999,
        "meta_rev_at_epoch": 65161,
        "meta_bstar": 0.0021841,
        "meta_mean_motion_dot": 5.174e-05,
        "meta_mean_motion_ddot": 0,
        "tle_line1": "1 31256U 99025BMN 25359.53500056  .00005174  00000+0  21841-2 0  9994",
        "tle_line2": "2 31256  98.6797 206.6326 0308502  77.9872 285.5692 14.03412598651611"
      },
      "geometry": {
        "type": "Point",
        "coordinates": [
          -105.00844508124268,
          -78.37848812256607
        ]
      }
    },
    {
      "type": "Feature",
      "properties": {
        "norad_id": 31258,
        "name": "FENGYUN 1C DEB",
        "group": "fengyun-1c-debris",
        "lat": -71.96515842805708,
        "lon": 179.54807156530174,
        "alt_km": 516.4670507548999,
        "timestamp": "2025-12-25T22:42:17.292855+00:00",
        "meta_object_name": "FENGYUN 1C DEB",
        "meta_object_id": "1999-025BMQ",
        "meta_epoch": "2025-12-24T09:10:00.892992",
        "meta_mean_motion": 15.16490978,
        "meta_eccentricity": 0.00080756,
        "meta_inclination": 98.8459,
        "meta_ra_of_asc_node": 149.1496,
        "meta_arg_of_pericenter": 313.0592,
        "meta_mean_anomaly": 77.2455,
        "meta_ephemeris_type": 0,
        "meta_classification_type": "U",
        "meta_norad_cat_id": 31258,
        "meta_element_set_no": 999,
        "meta_rev_at_epoch": 97287,
        "meta_bstar": 0.010968771,
        "meta_mean_motion_dot": 0.00220131,
        "meta_mean_motion_ddot": 0,
        "tle_line1": "1 31258U 99025BMQ 25358.38195478  .00220131  00000+0  10969-1 0  9996",
        "tle_line2": "2 31258  98.8459 149.1496 0008075 313.0592  77.2455 15.16490978972874"
      },
      "geometry": {
        "type": "Point",
        "coordinates": [
          179.54807156530174,
          -71.96515842805708
        ]
      }
    },
    {
      "type": "Feature",
      "properties": {
        "norad_id": 31259,
        "name": "FENGYUN 1C DEB",
        "group": "fengyun-1c-debris",
        "lat": 43.75139645894261,
        "lon": -91.99389927256321,
        "alt_km": 794.8385718638128,
        "timestamp": "2025-12-25T22:42:17.292865+00:00",
        "meta_object_name": "FENGYUN 1C DEB",
        "meta_object_id": "1999-025BMR",
        "meta_epoch": "2025-12-25T11:56:19.827744",
        "meta_mean_motion": 14.1510416,
        "meta_eccentricity": 0.0065789,
        "meta_inclination": 99.0086,
        "meta_ra_of_asc_node": 78.8179,
        "meta_arg_of_pericenter": 160.9733,
        "meta_mean_anomaly": 210.8394,
        "meta_ephemeris_type": 0,
        "meta_classification_type": "U",
        "meta_norad_cat_id": 31259,
        "meta_element_set_no": 999,
        "meta_rev_at_epoch": 95750,
        "meta_bstar": 0.0017118,
        "meta_mean_motion_dot": 3.346e-05,
        "meta_mean_motion_ddot": 0,
        "tle_line1": "1 31259U 99025BMR 25359.49745171  .00003346  00000+0  17118-2 0  9992",
        "tle_line2": "2 31259  99.0086  78.8179 0065789 160.9733 210.8394 14.15104160957504"
      },
      "geometry": {
        "type": "Point",
        "coordinates": [
          -91.99389927256321,
          43.75139645894261
        ]
      }
    },
    {
      "type": "Feature",
      "properties": {
        "norad_id": 31260,
        "name": "FENGYUN 1C DEB",
        "group": "fengyun-1c-debris",
        "lat": 24.615579496219965,
        "lon": 81.55411260230156,
        "alt_km": 774.0333515546827,
        "timestamp": "2025-12-25T22:42:17.292877+00:00",
        "meta_object_name": "FENGYUN 1C DEB",
        "meta_object_id": "1999-025BMS",
        "meta_epoch": "2025-12-24T16:01:52.760928",
        "meta_mean_motion": 14.36490974,
        "meta_eccentricity": 0.00463688,
        "meta_inclination": 98.9566,
        "meta_ra_of_asc_node": 256.0821,
        "meta_arg_of_pericenter": 257.0576,
        "meta_mean_anomaly": 132.8353,
        "meta_ephemeris_type": 0,
        "meta_classification_type": "U",
        "meta_norad_cat_id": 31260,
        "meta_element_set_no": 999,
        "meta_rev_at_epoch": 97365,
        "meta_bstar": 0.00098697525,
        "meta_mean_motion_dot": 2.885e-05,
        "meta_mean_motion_ddot": 0,
        "tle_line1": "1 31260U 99025BMS 25358.66797177  .00002885  00000+0  98698-3 0  9995",
        "tle_line2": "2 31260  98.9566 256.0821 0046368 257.0576 132.8353 14.36490974973652"
      },
      "geometry": {
        "type": "Point",
        "coordinates": [
          81.55411260230156,
          24.615579496219965
        ]
      }
    },
    {
      "type": "Feature",
      "properties": {
        "norad_id": 31261,
        "name": "FENGYUN 1C DEB",
        "group": "fengyun-1c-debris",
        "lat": -14.803335920876943,
        "lon": -43.54600482364599,
        "alt_km": 794.1805149073825,
        "timestamp": "2025-12-25T22:42:17.292888+00:00",
        "meta_object_name": "FENGYUN 1C DEB",
        "meta_object_id": "1999-025BMT",
        "meta_epoch": "2025-12-25T14:26:15.686016",
        "meta_mean_motion": 14.4015586,
        "meta_eccentricity": 0.0050165,
        "meta_inclination": 99.0168,
        "meta_ra_of_asc_node": 313.6864,
        "meta_arg_of_pericenter": 194.1826,
        "meta_mean_anomaly": 165.7955,
        "meta_ephemeris_type": 0,
        "meta_classification_type": "U",
        "meta_norad_cat_id": 31261,
        "meta_element_set_no": 999,
        "meta_rev_at_epoch": 97535,
        "meta_bstar": 0.00095073,
        "meta_mean_motion_dot": 3.001e-05,
        "meta_mean_motion_ddot": 0,
        "tle_line1": "1 31261U 99025BMT 25359.60157044  .00003001  00000+0  95073-3 0  9999",
        "tle_line2": "2 31261  99.0168 313.6864 0050165 194.1826 165.7955 14.40155860975358"
      },
      "geometry": {
        "type": "Point",
        "coordinates": [
          -43.54600482364599,
          -14.803335920876943
        ]
      }
    },
    {
      "type": "Feature",
      "properties": {
        "norad_id": 31262,
        "name": "FENGYUN 1C DEB",
        "group": "fengyun-1c-debris",
        "lat": 42.94996199171413,
        "lon": 75.10177920373472,
        "alt_km": 789.9833619225255,
        "timestamp": "2025-12-25T22:42:17.292899+00:00",
        "meta_object_name": "FENGYUN 1C DEB",
        "meta_object_id": "1999-025BMU",
        "meta_epoch": "2025-12-23T04:36:31.658976",
        "meta_mean_motion": 14.18250623,
        "meta_eccentricity": 0.00545996,
        "meta_inclination": 99.0016,
        "meta_ra_of_asc_node": 80.7949,
        "meta_arg_of_pericenter": 68.7564,
        "meta_mean_anomaly": 321.7706,
        "meta_ephemeris_type": 0,
        "meta_classification_type": "U",
        "meta_norad_cat_id": 31262,
        "meta_element_set_no": 999,
        "meta_rev_at_epoch": 95857,
        "meta_bstar": 0.0016102319,
        "meta_mean_motion_dot": 3.318e-05,
        "meta_mean_motion_ddot": 0,
        "tle_line1": "1 31262U 99025BMU 25357.19203309  .00003318  00000+0  16102-2 0  9994",
        "tle_line2": "2 31262  99.0016  80.7949 0054599  68.7564 321.7706 14.18250623958578"
      },
      "geometry": {
        "type": "Point",
        "coordinates": [
          75.10177920373472,
          42.94996199171413
        ]
      }
    }
  ]
}